NORAD_CAT_ID,OBJECT_NAME,OBJECT_TYPE,EPOCH,MEAN_MOTION,ECCENTRICITY,INCLINATION,RA_OF_ASC_NODE,ARG_OF_PERICENTER,MEAN_ANOMALY,BSTAR,MEAN_MOTION_DOT,MEAN_MOTION_DDOT,TLE_LINE0,TLE_LINE1,TLE_LINE2,SEMIMAJOR_AXIS,PERIOD,APOGEE,PERIGEE,DECAYED
53714.0,STARLINK-4688,PAYLOAD,2023-12-24 22:04:33,15.08847539,0.0001328,53.2155,246.1371,95.4873,264.627,0.00030563,4.581e-05,0.0,0 STARLINK-4688,1 53714U 22107Q   23358.91983191  .00004581  00000-0  30563-3 0  9992,2 53714  53.2155 246.1371 0001328  95.4873 264.6270 15.08847539 73116,6917.857,95.437,540.641,538.804,0.0
53714.0,STARLINK-4688,PAYLOAD,2023-12-25 20:19:57,15.08841955,0.0001394,53.2152,241.9751,97.2017,262.9134,0.00011339,1.517e-05,0.0,0 STARLINK-4688,1 53714U 22107Q   23359.84719405  .00001517  00000-0  11339-3 0  9996,2 53714  53.2152 241.9751 0001394  97.2017 262.9134 15.08841955 72813,6917.874,95.437,540.704,538.775,0.0
53714.0,STARLINK-4688,PAYLOAD,2023-12-25 21:55:20,15.08841133,0.0001399,53.2154,241.6778,96.488,263.6271,8.1914e-05,1.016e-05,0.0,0 STARLINK-4688,1 53714U 22107Q   23359.91343431  .00001016  00000-0  81914-4 0  9997,2 53714  53.2154 241.6778 0001399  96.4880 263.6271 15.08841133 73263,6917.877,95.437,540.71,538.774,0.0
53714.0,STARLINK-4688,PAYLOAD,2023-12-26 21:46:03,15.08950615,0.0005008,53.2155,237.2233,170.8403,189.2681,0.0020206,0.00032121,0.0,0 STARLINK-4688,1 53714U 22107Q   23360.90698155  .00032121  00000-0  20206-2 0  9990,2 53714  53.2155 237.2233 0005008 170.8403 189.2681 15.08950615 73411,6917.542,95.431,542.872,535.943,0.0
53714.0,STARLINK-4688,PAYLOAD,2023-12-27 00:56:53,15.08851605,0.0001334,53.2149,236.6255,126.0778,234.0337,0.00018271,2.622e-05,0.0,0 STARLINK-4688,1 53714U 22107Q   23361.03950566  .00002622  00000-0  18271-3 0  9995,2 53714  53.2149 236.6255 0001334 126.0778 234.0337 15.08851605 72995,6917.845,95.437,540.633,538.787,0.0
53714.0,STARLINK-4688,PAYLOAD,2023-12-27 20:01:31,15.08841666,0.0001313,53.215,233.0585,95.1232,264.991,0.00014869,2.079e-05,0.0,0 STARLINK-4688,1 53714U 22107Q   23361.83439598  .00002079  00000-0  14869-3 0  9995,2 53714  53.2150 233.0585 0001313  95.1232 264.9910 15.08841666 73112,6917.875,95.437,540.649,538.832,0.0
53714.0,STARLINK-4688,PAYLOAD,2023-12-27 21:36:54,15.08842792,0.0001482,53.2147,232.7607,92.8209,267.2952,0.00015571,2.191e-05,0.0,0 STARLINK-4688,1 53714U 22107Q   23361.90063562  .00002191  00000-0  15571-3 0  9993,2 53714  53.2147 232.7607 0001482  92.8209 267.2952 15.08842792 73566,6917.872,95.437,540.762,538.712,0.0
53714.0,STARLINK-4688,PAYLOAD,2023-12-28 19:52:19,15.08827751,0.000138,53.2147,228.5946,136.8195,223.2905,0.00068984,0.00010704,0.0,0 STARLINK-4688,1 53714U 22107Q   23362.82800390  .00010704  00000-0  68984-3 0  9998,2 53714  53.2147 228.5946 0001380 136.8195 223.2905 15.08827751 73260,6917.918,95.438,540.738,538.828,0.0
53714.0,STARLINK-4688,PAYLOAD,2023-12-28 21:27:43,15.0881583,0.0001755,53.2146,228.3012,149.5186,210.5908,0.00080953,0.00012611,0.0,0 STARLINK-4688,1 53714U 22107Q   23362.89424844  .00012611  00000-0  80953-3 0  9990,2 53714  53.2146 228.3012 0001755 149.5186 210.5908 15.08815830 73715,6917.954,95.439,541.033,538.605,0.0
53714.0,STARLINK-4688,PAYLOAD,2023-12-29 00:38:28,15.08829877,0.0001023,53.2147,227.7021,104.4471,255.6635,0.00038031,5.768e-05,0.0,0 STARLINK-4688,1 53714U 22107Q   23363.02672272  .00005768  00000-0  38031-3 0  9991,2 53714  53.2147 227.7021 0001023 104.4471 255.6635 15.08829877 73739,6917.911,95.438,540.484,539.069,0.0
53714.0,STARLINK-4688,PAYLOAD,2023-12-29 19:43:05,15.08845018,0.0001451,53.2134,224.1364,112.9655,247.149,0.00017208,2.452e-05,0.0,0 STARLINK-4688,1 53714U 22107Q   23363.82159447  .00002452  00000-0  17208-3 0  9993,2 53714  53.2134 224.1364 0001451 112.9655 247.1490 15.08845018 73414,6917.865,95.437,540.734,538.726,0.0
53714.0,STARLINK-4688,PAYLOAD,2023-12-29 21:18:28,15.08845367,0.0001438,53.2136,223.8388,108.5388,251.576,0.00017062,2.429e-05,0.0,0 STARLINK-4688,1 53714U 22107Q   23363.88783432  .00002429  00000-0  17062-3 0  9998,2 53714  53.2136 223.8388 0001438 108.5388 251.5760 15.08845367 73862,6917.864,95.437,540.724,538.734,0.0
53714.0,STARLINK-4688,PAYLOAD,2023-12-30 14:47:42,15.08853088,0.0001403,53.2144,220.5663,101.0293,259.0857,0.00024694,3.646e-05,0.0,0 STARLINK-4688,1 53714U 22107Q   23364.61646795  .00003646  00000-0  24694-3 0  9991,2 53714  53.2144 220.5663 0001403 101.0293 259.0857 15.08853088 73977,6917.84,95.437,540.676,538.735,0.0
53714.0,STARLINK-4688,PAYLOAD,2023-12-30 21:09:14,15.08858133,0.0001423,53.2144,219.3772,96.6745,263.4409,0.00029421,4.4e-05,0.0,0 STARLINK-4688,1 53714U 22107Q   23364.88142359  .00004400  00000-0  29421-3 0  9999,2 53714  53.2144 219.3772 0001423  96.6745 263.4409 15.08858133 74011,6917.825,95.436,540.674,538.706,0.0
53714.0,STARLINK-4688,PAYLOAD,2023-12-31 19:24:39,15.0884204,0.0001464,53.2146,215.213,110.2741,249.8409,-1.1914e-05,-4.78e-06,0.0,0 STARLINK-4688,1 53714U 22107Q   23365.80878920 -.00000478  00000-0 -11914-4 0  9994,2 53714  53.2146 215.2130 0001464 110.2741 249.8409 15.08842040 73714,6917.874,95.437,540.752,538.726,0.0
53714.0,STARLINK-4688,PAYLOAD,2023-12-31 21:00:02,15.08838142,0.0001397,53.2146,214.9166,104.2396,255.8751,-8.0232e-05,-1.565e-05,0.0,0 STARLINK-4688,1 53714U 22107Q   23365.87503085 -.00001565  00000-0 -80232-4 0  9995,2 53714  53.2146 214.9166 0001397 104.2396 255.8751 15.08838142 74168,6917.886,95.438,540.717,538.785,0.0
53714.0,STARLINK-4688,PAYLOAD,2024-01-01 14:29:17,15.08835152,0.0001446,53.2148,211.6441,110.5594,249.5554,-0.00012884,-2.338e-05,0.0,0 STARLINK-4688,1 53714U 22107Q   24001.60367368 -.00002338  00000-0 -12884-3 0  9992,2 53714  53.2148 211.6441 0001446 110.5594 249.5554 15.08835152 74276,6917.895,95.438,540.761,538.76,0.0
53714.0,STARLINK-4688,PAYLOAD,2024-01-01 19:15:26,15.08836807,0.00014,53.215,210.7526,102.3493,257.7656,-7.9573e-05,-1.554e-05,0.0,0 STARLINK-4688,1 53714U 22107Q   24001.80239375 -.00001554  00000-0 -79573-4 0  9998,2 53714  53.2150 210.7526 0001400 102.3493 257.7656 15.08836807 73866,6917.89,95.438,540.724,538.787,0.0
53714.0,STARLINK-4688,PAYLOAD,2024-01-02 20:41:37,15.08838291,0.0001424,53.2147,205.995,105.0535,255.0615,0.00021694,3.166e-05,0.0,0 STARLINK-4688,1 53714U 22107Q   24002.86223709  .00003166  00000-0  21694-3 0  9998,2 53714  53.2147 205.9950 0001424 105.0535 255.0615 15.08838291 74464,6917.886,95.438,540.736,538.766,0.0
53714.0,STARLINK-4688,PAYLOAD,2024-01-02 23:52:23,15.08838446,0.0001412,53.2145,205.4013,104.4469,255.668,0.00020642,2.999e-05,0.0,0 STARLINK-4688,1 53714U 22107Q   24002.99471759  .00002999  00000-0  20642-3 0  9997,2 53714  53.2145 205.4013 0001412 104.4469 255.6680 15.08838446 74047,6917.885,95.438,540.727,538.773,0.0
53714.0,STARLINK-4688,PAYLOAD,2024-01-03 20:32:24,15.08839154,0.0001421,53.2145,201.535,107.0033,253.1115,0.00011441,1.533e-05,0.0,0 STARLINK-4688,1 53714U 22107Q   24003.85583932  .00001533  00000-0  11441-3 0  9990,2 53714  53.2145 201.5350 0001421 107.0033 253.1115 15.08839154 74610,6917.883,95.438,540.731,538.765,0.0
53714.0,STARLINK-4688,PAYLOAD,2024-01-04 21:58:34,15.0884131,0.0001384,53.2144,196.7772,102.9881,257.1265,9.0239e-05,1.149e-05,0.0,0 STARLINK-4688,1 53714U 22107Q   24004.91567937  .00001149  00000-0  90239-4 0  9991,2 53714  53.2144 196.7772 0001384 102.9881 257.1265 15.08841310 74779,6917.876,95.437,540.699,538.784,0.0
53714.0,STARLINK-4688,PAYLOAD,2024-01-05 12:17:03,15.08838602,0.0001397,53.2145,194.1024,97.4954,262.6197,8.3652e-05,1.044e-05,0.0,0 STARLINK-4688,1 53714U 22107Q   24005.51184239  .00001044  00000-0  83652-4 0  9993,2 53714  53.2145 194.1024 0001397  97.4954 262.6197 15.08838602 74860,6917.885,95.438,540.716,538.783,0.0
53714.0,STARLINK-4688,PAYLOAD,2024-01-05 18:38:35,15.08839088,0.0001394,53.2155,192.9115,97.5964,262.5187,8.0627e-05,9.95e-06,0.0,0 STARLINK-4688,1 53714U 22107Q   24005.77680405  .00000995  00000-0  80627-4 0  9990,2 53714  53.2155 192.9115 0001394  97.5964 262.5187 15.08839088 74460,6917.883,95.438,540.713,538.784,0.0
53714.0,STARLINK-4688,PAYLOAD,2024-01-06 18:29:22,15.08843605,0.0001399,53.2157,188.4506,101.5607,258.5543,9.7045e-05,1.257e-05,0.0,0 STARLINK-4688,1 53714U 22107Q   24006.77040069  .00001257  00000-0  97045-4 0  9991,2 53714  53.2157 188.4506 0001399 101.5607 258.5543 15.08843605 75058,6917.869,95.437,540.702,538.767,0.0
53714.0,STARLINK-4688,PAYLOAD,2024-01-07 11:58:37,15.08842812,0.0001412,53.2161,185.1795,100.7464,259.3687,0.00010409,1.369e-05,0.0,0 STARLINK-4688,1 53714U 22107Q   24007.49904102  .00001369  00000-0  10409-3 0  9990,2 53714  53.2161 185.1795 0001412 100.7464 259.3687 15.08842812 74725,6917.872,95.437,540.714,538.76,0.0
53714.0,STARLINK-4688,PAYLOAD,2024-01-07 18:20:09,15.08844011,0.0001396,53.2163,183.9907,101.3112,258.8037,0.00011157,1.488e-05,0.0,0 STARLINK-4688,1 53714U 22107Q   24007.76400004  .00001488  00000-0  11157-3 0  9995,2 53714  53.2163 183.9907 0001396 101.3112 258.8037 15.08844011 75206,6917.868,95.437,540.699,538.767,0.0
53714.0,STARLINK-4688,PAYLOAD,2024-01-08 11:49:24,15.08840725,0.0001445,53.2167,180.7219,102.1666,257.9488,5.9825e-05,6.64e-06,0.0,0 STARLINK-4688,1 53714U 22107Q   24008.49264296  .00000664  00000-0  59825-4 0  9997,2 53714  53.2167 180.7219 0001445 102.1666 257.9488 15.08840725 75319,6917.878,95.438,540.743,538.744,0.0
53714.0,STARLINK-4688,PAYLOAD,2024-01-08 18:10:56,15.08839793,0.0001407,53.2168,179.5322,103.8187,256.2962,3.6211e-05,2.88e-06,0.0,0 STARLINK-4688,1 53714U 22107Q   24008.75760341  .00000288  00000-0  36211-4 0  9994,2 53714  53.2168 179.5322 0001407 103.8187 256.2962 15.08839793 74912,6917.881,95.438,540.719,538.773,0.0
53714.0,STARLINK-4688,PAYLOAD,2024-01-09 14:50:57,15.08844123,0.0001363,53.2171,175.6668,99.4867,260.6279,8.232e-05,1.023e-05,0.0,0 STARLINK-4688,1 53714U 22107Q   24009.61871959  .00001023  00000-0  82320-4 0  9998,2 53714  53.2171 175.6668 0001363  99.4867 260.6279 15.08844123 75488,6917.868,95.437,540.676,538.79,0.0
